[{"OBJECT_NAME":"STARLINK-30188","OBJECT_ID":"2023-105C","EPOCH":"2026-03-09T22:00:01.999584","MEAN_MOTION":15.12347559,"ECCENTRICITY":0.00023729,"INCLINATION":42.9998,"RA_OF_ASC_NODE":259.9305,"ARG_OF_PERICENTER":277.6311,"MEAN_ANOMALY":331.0502,"EPHEMERIS_TYPE":0,"CLASSIFICATION_TYPE":"U","NORAD_CAT_ID":57432,"ELEMENT_SET_NO":999,"REV_AT_EPOCH":572,"BSTAR":0.004944245,"MEAN_MOTION_DOT":0.00088094,"MEAN_MOTION_DDOT":0},{"OBJECT_NAME":"OBJECT A","OBJECT_ID":"2025-108A","EPOCH":"2026-03-09T23:49:23.118816","MEAN_MOTION":15.15153466,"ECCENTRICITY":0.00012868,"INCLINATION":97.483,"RA_OF_ASC_NODE":145.2164,"ARG_OF_PERICENTER":288.0162,"MEAN_ANOMALY":72.093,"EPHEMERIS_TYPE":0,"CLASSIFICATION_TYPE":"U","NORAD_CAT_ID":64087,"ELEMENT_SET_NO":999,"REV_AT_EPOCH":4429,"BSTAR":0.00036367028,"MEAN_MOTION_DOT":6.755e-5,"MEAN_MOTION_DDOT":0}]
